{
  "type": "FeatureCollection",
  "features": [
    {
      "type": "Feature",
      "properties": {
        "norad_id": 28051,
        "name": "IRS-P6 (RESOURCESAT-1)",
        "group": "resource",
        "lat": 53.584998365491415,
        "lon": -148.47648456436892,
        "alt_km": 755.931070403175,
        "timestamp": "2025-12-05T11:32:55.682836+00:00",
        "meta_object_name": "IRS-P6 (RESOURCESAT-1)",
        "meta_object_id": "2003-046A",
        "meta_epoch": "2025-12-04T18:44:32.142912",
        "meta_mean_motion": 14.36069129,
        "meta_eccentricity": 0.0063734,
        "meta_inclination": 98.2189,
        "meta_ra_of_asc_node": 19.5565,
        "meta_arg_of_pericenter": 204.6423,
        "meta_mean_anomaly": 263.4016,
        "meta_ephemeris_type": 0,
        "meta_classification_type": "U",
        "meta_norad_cat_id": 28051,
        "meta_element_set_no": 999,
        "meta_rev_at_epoch": 15262,
        "meta_bstar": 0.00015852,
        "meta_mean_motion_dot": 4.31e-06,
        "meta_mean_motion_ddot": 0,
        "tle_line1": "1 28051U 03046A   25338.78092758  .00000431  00000+0  15852-3 0  9997",
        "tle_line2": "2 28051  98.2189  19.5565 0063734 204.6423 263.4016 14.36069129152629"
      },
      "geometry": {
        "type": "Point",
        "coordinates": [
          -148.47648456436892,
          53.584998365491415
        ]
      }
    },
    {
      "type": "Feature",
      "properties": {
        "norad_id": 28220,
        "name": "SHIYAN-1 (SY-1)",
        "group": "resource",
        "lat": 57.713467551268096,
        "lon": -126.71945543503624,
        "alt_km": 479.3178135562539,
        "timestamp": "2025-12-05T11:32:55.682847+00:00",
        "meta_object_name": "SHIYAN-1 (SY-1)",
        "meta_object_id": "2004-012A",
        "meta_epoch": "2025-12-04T16:09:27.642240",
        "meta_mean_motion": 15.27825198,
        "meta_eccentricity": 0.000617,
        "meta_inclination": 97.8951,
        "meta_ra_of_asc_node": 39.7379,
        "meta_arg_of_pericenter": 355.3521,
        "meta_mean_anomaly": 4.7659,
        "meta_ephemeris_type": 0,
        "meta_classification_type": "U",
        "meta_norad_cat_id": 28220,
        "meta_element_set_no": 999,
        "meta_rev_at_epoch": 18133,
        "meta_bstar": 0.00097333,
        "meta_mean_motion_dot": 0.00026446,
        "meta_mean_motion_ddot": 0,
        "tle_line1": "1 28220U 04012A   25338.67323660  .00026446  00000+0  97333-3 0  9994",
        "tle_line2": "2 28220  97.8951  39.7379 0006170 355.3521   4.7659 15.27825198181336"
      },
      "geometry": {
        "type": "Point",
        "coordinates": [
          -126.71945543503624,
          57.713467551268096
        ]
      }
    },
    {
      "type": "Feature",
      "properties": {
        "norad_id": 28376,
        "name": "AURA",
        "group": "resource",
        "lat": 73.4938601491384,
        "lon": 139.25558216701643,
        "alt_km": 682.3731520531201,
        "timestamp": "2025-12-05T11:32:55.682859+00:00",
        "meta_object_name": "AURA",
        "meta_object_id": "2004-026A",
        "meta_epoch": "2025-12-04T16:59:30.354144",
        "meta_mean_motion": 14.60917064,
        "meta_eccentricity": 0.0001135,
        "meta_inclination": 98.3171,
        "meta_ra_of_asc_node": 288.8977,
        "meta_arg_of_pericenter": 92.7015,
        "meta_mean_anomaly": 267.4315,
        "meta_ephemeris_type": 0,
        "meta_classification_type": "U",
        "meta_norad_cat_id": 28376,
        "meta_element_set_no": 999,
        "meta_rev_at_epoch": 13781,
        "meta_bstar": 0.0005147,
        "meta_mean_motion_dot": 2.472e-05,
        "meta_mean_motion_ddot": 0,
        "tle_line1": "1 28376U 04026A   25338.70799021  .00002472  00000+0  51470-3 0  9998",
        "tle_line2": "2 28376  98.3171 288.8977 0001135  92.7015 267.4315 14.60917064137816"
      },
      "geometry": {
        "type": "Point",
        "coordinates": [
          139.25558216701643,
          73.4938601491384
        ]
      }
    },
    {
      "type": "Feature",
      "properties": {
        "norad_id": 28649,
        "name": "IRS-P5 (CARTOSAT-1)",
        "group": "resource",
        "lat": -82.40224108900938,
        "lon": 102.34301433009077,
        "alt_km": 605.0746242813293,
        "timestamp": "2025-12-05T11:32:55.682869+00:00",
        "meta_object_name": "IRS-P5 (CARTOSAT-1)",
        "meta_object_id": "2005-017A",
        "meta_epoch": "2025-12-04T15:00:30.138912",
        "meta_mean_motion": 14.90362164,
        "meta_eccentricity": 0.0001718,
        "meta_inclination": 97.5498,
        "meta_ra_of_asc_node": 5.3988,
        "meta_arg_of_pericenter": 52.3867,
        "meta_mean_anomaly": 307.7507,
        "meta_ephemeris_type": 0,
        "meta_classification_type": "U",
        "meta_norad_cat_id": 28649,
        "meta_element_set_no": 999,
        "meta_rev_at_epoch": 11483,
        "meta_bstar": 0.00042194,
        "meta_mean_motion_dot": 4.054e-05,
        "meta_mean_motion_ddot": 0,
        "tle_line1": "1 28649U 05017A   25338.62534883  .00004054  00000+0  42194-3 0  9997",
        "tle_line2": "2 28649  97.5498   5.3988 0001718  52.3867 307.7507 14.90362164114836"
      },
      "geometry": {
        "type": "Point",
        "coordinates": [
          102.34301433009077,
          -82.40224108900938
        ]
      }
    },
    {
      "type": "Feature",
      "properties": {
        "norad_id": 28893,
        "name": "SINAH 1",
        "group": "resource",
        "lat": -51.292595689114584,
        "lon": -82.42511599892335,
        "alt_km": 684.3467115132544,
        "timestamp": "2025-12-05T11:32:55.682880+00:00",
        "meta_object_name": "SINAH 1",
        "meta_object_id": "2005-043D",
        "meta_epoch": "2025-12-04T16:26:57.181056",
        "meta_mean_motion": 14.63948386,
        "meta_eccentricity": 0.0014902,
        "meta_inclination": 98.2601,
        "meta_ra_of_asc_node": 107.2214,
        "meta_arg_of_pericenter": 161.1396,
        "meta_mean_anomaly": 199.0361,
        "meta_ephemeris_type": 0,
        "meta_classification_type": "U",
        "meta_norad_cat_id": 28893,
        "meta_element_set_no": 999,
        "meta_rev_at_epoch": 7206,
        "meta_bstar": 0.00019552,
        "meta_mean_motion_dot": 9.76e-06,
        "meta_mean_motion_ddot": 0,
        "tle_line1": "1 28893U 05043D   25338.68538404  .00000976  00000+0  19552-3 0  9997",
        "tle_line2": "2 28893  98.2601 107.2214 0014902 161.1396 199.0361 14.63948386 72064"
      },
      "geometry": {
        "type": "Point",
        "coordinates": [
          -82.42511599892335,
          -51.292595689114584
        ]
      }
    },
    {
      "type": "Feature",
      "properties": {
        "norad_id": 29079,
        "name": "EROS B",
        "group": "resource",
        "lat": 75.2639128744929,
        "lon": 66.33523843689997,
        "alt_km": 365.95052224323354,
        "timestamp": "2025-12-05T11:32:55.682891+00:00",
        "meta_object_name": "EROS B",
        "meta_object_id": "2006-014A",
        "meta_epoch": "2025-12-04T18:20:38.536224",
        "meta_mean_motion": 15.65226036,
        "meta_eccentricity": 0.0002064,
        "meta_inclination": 97.3494,
        "meta_ra_of_asc_node": 94.9764,
        "meta_arg_of_pericenter": 242.6476,
        "meta_mean_anomaly": 117.4573,
        "meta_ephemeris_type": 0,
        "meta_classification_type": "U",
        "meta_norad_cat_id": 29079,
        "meta_element_set_no": 999,
        "meta_rev_at_epoch": 8955,
        "meta_bstar": 0.0022255,
        "meta_mean_motion_dot": 0.00225771,
        "meta_mean_motion_ddot": 0,
        "tle_line1": "1 29079U 06014A   25338.76433491  .00225771  00000+0  22255-2 0  9997",
        "tle_line2": "2 29079  97.3494  94.9764 0002064 242.6476 117.4573 15.65226036 89558"
      },
      "geometry": {
        "type": "Point",
        "coordinates": [
          66.33523843689997,
          75.2639128744929
        ]
      }
    },
    {
      "type": "Feature",
      "properties": {
        "norad_id": 29228,
        "name": "RESURS-DK 1",
        "group": "resource",
        "lat": -32.64218424988657,
        "lon": 107.05347033261837,
        "alt_km": 532.7941662761541,
        "timestamp": "2025-12-05T11:32:55.682901+00:00",
        "meta_object_name": "RESURS-DK 1",
        "meta_object_id": "2006-021A",
        "meta_epoch": "2025-12-04T16:39:05.537376",
        "meta_mean_motion": 15.12089965,
        "meta_eccentricity": 0.00078,
        "meta_inclination": 69.9333,
        "meta_ra_of_asc_node": 122.6288,
        "meta_arg_of_pericenter": 264.441,
        "meta_mean_anomaly": 95.5866,
        "meta_ephemeris_type": 0,
        "meta_classification_type": "U",
        "meta_norad_cat_id": 29228,
        "meta_element_set_no": 999,
        "meta_rev_at_epoch": 7316,
        "meta_bstar": 0.00035997,
        "meta_mean_motion_dot": 6.111e-05,
        "meta_mean_motion_ddot": 0,
        "tle_line1": "1 29228U 06021A   25338.69381409  .00006111  00000+0  35997-3 0  9997",
        "tle_line2": "2 29228  69.9333 122.6288 0007800 264.4410  95.5866 15.12089965 73165"
      },
      "geometry": {
        "type": "Point",
        "coordinates": [
          107.05347033261837,
          -32.64218424988657
        ]
      }
    }
  ]
}